[{"OBJECT_NAME":"STARLINK-3594","OBJECT_ID":"2022-022AV","EPOCH":"2026-03-09T04:52:32.118528","MEAN_MOTION":15.08861203,"ECCENTRICITY":0.00014175,"INCLINATION":53.2192,"RA_OF_ASC_NODE":1.3024,"ARG_OF_PERICENTER":91.6222,"MEAN_ANOMALY":268.4932,"EPHEMERIS_TYPE":0,"CLASSIFICATION_TYPE":"U","NORAD_CAT_ID":51895,"ELEMENT_SET_NO":999,"REV_AT_EPOCH":22317,"BSTAR":0.000112297,"MEAN_MOTION_DOT":1.501e-5,"MEAN_MOTION_DDOT":0},{"OBJECT_NAME":"SITRO-AIS 28","OBJECT_ID":"2024-039U","EPOCH":"2026-03-09T22:53:08.846304","MEAN_MOTION":14.92876764,"ECCENTRICITY":0.01445021,"INCLINATION":95.3938,"RA_OF_ASC_NODE":167.1162,"ARG_OF_PERICENTER":314.581,"MEAN_ANOMALY":44.3693,"EPHEMERIS_TYPE":0,"CLASSIFICATION_TYPE":"U","NORAD_CAT_ID":59071,"ELEMENT_SET_NO":999,"REV_AT_EPOCH":10993,"BSTAR":0.0004111707,"MEAN_MOTION_DOT":5.19e-5,"MEAN_MOTION_DDOT":0}]
